{
  "norad_id": 63903,
  "name": "STARLINK-34097",
  "history": [
    {
      "epoch": "2026-03-28T10:03:13.729824",
      "apogee_km": 484.1612924829824,
      "perigee_km": 481.7895431423922,
      "latitude_deg": -25.616874196078857,
      "longitude_deg": -109.48474463983439,
      "semi_major_axis_km": 6861.1124178126865,
      "eccentricity": 0.00017284,
      "inclination_deg": 43.0031,
      "raan_deg": 70.316,
      "arg_perigee_deg": 260.79,
      "mean_anomaly_deg": 99.2756,
      "mean_motion_rev_day": 15.27604606
    }
  ]
}