{"fetched_at":"2026-03-29T02:12:04Z","count":15717,"tles":[{"name":"STARLINK-34097","line1":"1 63903U 25095P   26087.41890891  .00024340  00000+0  89042-3 0  9993","line2":"2 63903  43.0031  70.3160 0001728 260.7900  99.2756 15.27604606 50643","category":"Starlink"}]}